NORAD_CAT_ID,OBJECT_NAME,OBJECT_TYPE,EPOCH,MEAN_MOTION,ECCENTRICITY,INCLINATION,RA_OF_ASC_NODE,ARG_OF_PERICENTER,MEAN_ANOMALY,BSTAR,MEAN_MOTION_DOT,MEAN_MOTION_DDOT,TLE_LINE0,TLE_LINE1,TLE_LINE2,SEMIMAJOR_AXIS,PERIOD,APOGEE,PERIGEE,DECAYED
52469.0,STARLINK-3828,PAYLOAD,2024-04-29 13:32:48,15.08843531,0.0001811,53.2154,227.8346,82.6567,277.4631,0.00030849,4.625e-05,0.0,0 STARLINK-3828,1 52469U 22049U   24120.56444547  .00004625  00000-0  30849-3 0  9995,2 52469  53.2154 227.8346 0001811  82.6567 277.4631 15.08843531109722,6917.87,95.437,540.987,538.482,0.0
52469.0,STARLINK-3828,PAYLOAD,2024-04-30 13:23:34,15.08841916,0.0001715,53.2168,223.3722,93.1433,266.9755,5.6615e-05,6.13e-06,0.0,0 STARLINK-3828,1 52469U 22049U   24121.55804238  .00000613  00000-0  56615-4 0  9995,2 52469  53.2168 223.3722 0001715  93.1433 266.9755 15.08841916110039,6917.875,95.437,540.926,538.553,0.0
52469.0,STARLINK-3828,PAYLOAD,2024-05-01 13:14:21,15.08848739,0.0001647,53.2166,218.9122,94.9817,265.1363,0.00045663,6.988e-05,0.0,0 STARLINK-3828,1 52469U 22049U   24122.55164084  .00006988  00000-0  45663-3 0  9995,2 52469  53.2166 218.9122 0001647  94.9817 265.1363 15.08848739110025,6917.854,95.437,540.858,538.579,0.0
52469.0,STARLINK-3828,PAYLOAD,2024-05-02 13:05:09,15.08837296,0.0001147,53.2164,214.4511,87.703,272.4094,5.4898e-05,5.86e-06,0.0,0 STARLINK-3828,1 52469U 22049U   24123.54524417  .00000586  00000-0  54898-4 0  9994,2 52469  53.2164 214.4511 0001147  87.7030 272.4094 15.08837296110330,6917.889,95.438,540.547,538.96,0.0
52469.0,STARLINK-3828,PAYLOAD,2024-05-02 22:37:27,15.08845727,0.000113,53.217,212.6665,86.2223,273.8898,0.00015853,2.236e-05,0.0,0 STARLINK-3828,1 52469U 22049U   24123.94267946  .00002236  00000-0  15853-3 0  9990,2 52469  53.2170 212.6665 0001130  86.2223 273.8898 15.08845727110398,6917.863,95.437,540.51,538.946,0.0
52469.0,STARLINK-3828,PAYLOAD,2024-05-03 12:55:55,15.08847938,0.0001171,53.2175,209.9926,96.9874,263.1252,4.3803e-05,4.09e-06,0.0,0 STARLINK-3828,1 52469U 22049U   24124.53883770  .00000409  00000-0  43803-4 0  9992,2 52469  53.2175 209.9926 0001171  96.9874 263.1252 15.08847938110322,6917.856,95.437,540.531,538.911,0.0
52469.0,STARLINK-3828,PAYLOAD,2024-05-03 22:28:14,15.08851118,0.0001144,53.2175,208.2083,89.4589,270.6535,0.00022538,3.302e-05,0.0,0 STARLINK-3828,1 52469U 22049U   24124.93627460  .00003302  00000-0  22538-3 0  9994,2 52469  53.2175 208.2083 0001144  89.4589 270.6535 15.08851118110386,6917.846,95.437,540.503,538.92,0.0
52469.0,STARLINK-3828,PAYLOAD,2024-05-04 12:46:43,15.08833465,0.0001193,53.2168,205.5304,76.8983,283.2142,-2.5252e-05,-6.9e-06,0.0,0 STARLINK-3828,1 52469U 22049U   24125.53244586 -.00000690  00000-0 -25252-4 0  9991,2 52469  53.2168 205.5304 0001193  76.8983 283.2142 15.08833465110633,6917.9,95.438,540.591,538.94,0.0
52469.0,STARLINK-3828,PAYLOAD,2024-05-05 12:37:30,15.08845491,0.0001249,53.2169,201.0714,78.685,281.4283,0.00025333,3.747e-05,0.0,0 STARLINK-3828,1 52469U 22049U   24126.52604317  .00003747  00000-0  25333-3 0  9996,2 52469  53.2169 201.0714 0001249  78.6850 281.4283 15.08845491110789,6917.864,95.437,540.593,538.865,0.0
52469.0,STARLINK-3828,PAYLOAD,2024-05-05 14:12:53,15.08847449,0.0001281,53.2169,200.7739,77.0474,283.0661,0.0004242,6.471e-05,0.0,0 STARLINK-3828,1 52469U 22049U   24126.59228332  .00006471  00000-0  42420-3 0  9995,2 52469  53.2169 200.7739 0001281  77.0474 283.0661 15.08847449110630,6917.858,95.437,540.609,538.836,0.0
52469.0,STARLINK-3828,PAYLOAD,2024-05-06 10:52:54,15.08845613,0.0001247,53.2168,196.9085,85.1355,274.978,0.00031234,4.687e-05,0.0,0 STARLINK-3828,1 52469U 22049U   24127.45340409  .00004687  00000-0  31234-3 0  9999,2 52469  53.2168 196.9085 0001247  85.1355 274.9780 15.08845613110923,6917.863,95.437,540.591,538.866,0.0
52469.0,STARLINK-3828,PAYLOAD,2024-05-06 22:00:35,15.08853627,0.0001234,53.2164,194.8267,83.7218,276.3915,0.00034354,5.186e-05,0.0,0 STARLINK-3828,1 52469U 22049U   24127.91707917  .00005186  00000-0  34354-3 0  9992,2 52469  53.2164 194.8267 0001234  83.7218 276.3915 15.08853627110836,6917.839,95.437,540.557,538.85,0.0
52469.0,STARLINK-3828,PAYLOAD,2024-05-07 10:43:41,15.08838909,0.0001127,53.2156,192.4487,84.9399,275.1721,3.7015e-05,3.01e-06,0.0,0 STARLINK-3828,1 52469U 22049U   24128.44700420  .00000301  00000-0  37015-4 0  9995,2 52469  53.2156 192.4487 0001127  84.9399 275.1721 15.08838909111074,6917.884,95.438,540.528,538.969,0.0
52469.0,STARLINK-3828,PAYLOAD,2024-05-07 13:54:27,15.08840096,0.0001311,53.2169,191.8526,95.7737,264.3405,3.4992e-05,2.69e-06,0.0,0 STARLINK-3828,1 52469U 22049U   24128.57948373  .00000269  00000-0  34992-4 0  9994,2 52469  53.2169 191.8526 0001311  95.7737 264.3405 15.08840096110939,6917.88,95.438,540.652,538.838,0.0
52469.0,STARLINK-3828,PAYLOAD,2024-05-08 10:34:29,15.08820944,0.0001286,53.2165,187.987,83.2801,276.8337,-0.00021624,-3.726e-05,0.0,0 STARLINK-3828,1 52469U 22049U   24129.44061741 -.00003726  00000-0 -21624-3 0  9996,2 52469  53.2165 187.9870 0001286  83.2801 276.8337 15.08820944111223,6917.939,95.439,540.693,538.914,0.0
52469.0,STARLINK-3828,PAYLOAD,2024-05-08 13:45:15,15.08820534,0.0001286,53.2165,187.3922,83.1007,277.0131,-0.00020285,-3.513e-05,0.0,0 STARLINK-3828,1 52469U 22049U   24129.57309912 -.00003513  00000-0 -20285-3 0  9991,2 52469  53.2165 187.3922 0001286  83.1007 277.0131 15.08820534111086,6917.94,95.439,540.695,538.915,0.0
52469.0,STARLINK-3828,PAYLOAD,2024-05-09 10:25:16,15.08839213,0.0001342,53.2159,183.5272,79.3504,280.7639,0.00056382,8.696e-05,0.0,0 STARLINK-3828,1 52469U 22049U   24130.43422301  .00008696  00000-0  56382-3 0  9998,2 52469  53.2159 183.5272 0001342  79.3504 280.7639 15.08839213111377,6917.883,95.438,540.676,538.819,0.0
52469.0,STARLINK-3828,PAYLOAD,2024-05-10 10:16:03,15.08869426,0.0001385,53.2155,179.0668,78.4524,281.6624,0.0010947,0.00017191,0.0,0 STARLINK-3828,1 52469U 22049U   24131.42781745  .00017191  00000-0  10947-2 0  9994,2 52469  53.2155 179.0668 0001385  78.4524 281.6624 15.08869426111363,6917.79,95.436,540.614,538.697,0.0
52469.0,STARLINK-3828,PAYLOAD,2024-05-10 19:48:21,15.08895857,0.0001406,53.2154,177.2826,79.5074,280.6076,0.0018313,0.00029022,0.0,0 STARLINK-3828,1 52469U 22049U   24131.82524716  .00029022  00000-0  18313-2 0  9992,2 52469  53.2154 177.2826 0001406  79.5074 280.6076 15.08895857111585,6917.71,95.434,540.547,538.602,0.0
52469.0,STARLINK-3828,PAYLOAD,2024-05-11 03:45:16,15.08858052,0.0001552,53.2154,175.7953,91.022,269.095,1.4789e-05,-5.3e-07,0.0,0 STARLINK-3828,1 52469U 22049U   24132.15644638 -.00000053  00000-0  14789-4 0  9994,2 52469  53.2154 175.7953 0001552  91.0220 269.0950 15.08858052111637,6917.825,95.436,540.764,538.617,0.0
52469.0,STARLINK-3828,PAYLOAD,2024-05-11 10:06:49,15.08875668,0.0001463,53.2154,174.6078,99.4991,260.6166,0.0030841,0.00049186,0.0,0 STARLINK-3828,1 52469U 22049U   24132.42140552  .00049186  00000-0  30841-2 0  9994,2 52469  53.2154 174.6078 0001463  99.4991 260.6166 15.08875668111673,6917.771,95.435,540.648,538.624,0.0
52469.0,STARLINK-3828,PAYLOAD,2024-05-12 11:33:00,15.08719472,0.0001411,53.2145,169.8484,98.7387,261.3765,0.00077318,0.00011998,0.0,0 STARLINK-3828,1 52469U 22049U   24133.48125930  .00011998  00000-0  77318-3 0  9995,2 52469  53.2145 169.8484 0001411  98.7387 261.3765 15.08719472111835,6918.249,95.445,541.09,539.138,0.0
52469.0,STARLINK-3828,PAYLOAD,2024-05-12 19:29:59,15.08721194,0.0001327,53.2155,168.3616,102.9073,257.2068,0.00012292,1.663e-05,0.0,0 STARLINK-3828,1 52469U 22049U   24133.81248843  .00001663  00000-0  12292-3 0  9999,2 52469  53.2155 168.3616 0001327 102.9073 257.2068 15.08721194111725,6918.244,95.445,541.027,539.191,0.0
52469.0,STARLINK-3828,PAYLOAD,2024-05-13 12:59:13,15.0886497,0.0001612,53.2146,165.093,72.7866,287.3302,0.00091482,0.00014311,0.0,0 STARLINK-3828,1 52469U 22049U   24134.54112429  .00014311  00000-0  91482-3 0  9992,2 52469  53.2146 165.0930 0001612  72.7866 287.3302 15.08864970111836,6917.804,95.436,540.784,538.554,0.0
52469.0,STARLINK-3828,PAYLOAD,2024-05-13 19:20:45,15.088672,0.0001654,53.2141,163.9039,72.5766,287.5407,0.00056019,8.645e-05,0.0,0 STARLINK-3828,1 52469U 22049U   24134.80607958  .00008645  00000-0  56019-3 0  9997,2 52469  53.2141 163.9039 0001654  72.5766 287.5407 15.08867200111872,6917.797,95.436,540.806,538.518,0.0
52469.0,STARLINK-3828,PAYLOAD,2024-05-14 08:03:49,15.08872407,0.0001555,53.2147,161.5228,76.7418,283.3747,0.00089966,0.00014072,0.0,0 STARLINK-3828,1 52469U 22049U   24135.33598996  .00014072  00000-0  89966-3 0  9995,2 52469  53.2147 161.5228 0001555  76.7418 283.3747 15.08872407112116,6917.781,95.436,540.722,538.571,0.0
52469.0,STARLINK-3828,PAYLOAD,2024-05-14 19:11:30,15.08881364,0.0001589,53.2151,159.4411,75.3224,284.7944,0.00052529,8.091e-05,0.0,0 STARLINK-3828,1 52469U 22049U   24135.79965659  .00008091  00000-0  52529-3 0  9998,2 52469  53.2151 159.4411 0001589  75.3224 284.7944 15.08881364112024,6917.754,95.435,540.718,538.52,0.0
52469.0,STARLINK-3828,PAYLOAD,2024-05-15 04:43:48,15.08866163,0.0001871,53.2169,157.6546,94.6346,265.486,7.5866e-05,9.2e-06,0.0,0 STARLINK-3828,1 52469U 22049U   24136.19709295  .00000920  00000-0  75866-4 0  9998,2 52469  53.2169 157.6546 0001871  94.6346 265.4860 15.08866163112242,6917.8,95.436,540.96,538.371,0.0
52469.0,STARLINK-3828,PAYLOAD,2024-05-15 07:54:35,15.08860238,0.0001608,53.2178,157.0612,87.2031,272.9145,6.7199e-05,7.82e-06,0.0,0 STARLINK-3828,1 52469U 22049U   24136.32957527  .00000782  00000-0  67199-4 0  9992,2 52469  53.2178 157.0612 0001608  87.2031 272.9145 15.08860238112108,6917.819,95.436,540.796,538.571,0.0
52469.0,STARLINK-3828,PAYLOAD,2024-05-16 04:34:35,15.08854047,0.000164,53.2169,153.1942,89.5839,270.5341,-7.2303e-05,-1.439e-05,0.0,0 STARLINK-3828,1 52469U 22049U   24137.19069373 -.00001439  00000-0 -72303-4 0  9996,2 52469  53.2169 153.1942 0001640  89.5839 270.5341 15.08854047112392,6917.837,95.437,540.837,538.568,0.0
